ONEWEB-0215             
1 48800U 21045AK  26050.13961921 -.00000036  00000+0 -13101-3 0  9996
2 48800  87.8975 282.7421 0001341 112.4809 247.6463 13.15550592228770
ONEWEB-0216             
1 48801U 21045AL  26050.14911240  .00000039  00000+0  68380-4 0  9998
2 48801  87.8960 282.7622 0001382  81.2291 278.8996 13.15549967228783
ONEWEB-0239             
1 48802U 21045AM  26050.07780167 -.00000151  00000+0 -43557-3 0  9998
2 48802  87.8958 282.7906 0001614 116.5798 243.5498 13.15548183228817
ONEWEB-0249             
1 48967U 21060A   26050.10560061 -.00000010  00000+0 -59628-4 0  9991
2 48967  87.8999 252.2769 0001651  98.1856 261.9463 13.16592325224072
ONEWEB-0250             
1 48968U 21060B   26050.04922354  .00000064  00000+0  11593-3 0  9997
2 48968  87.8995 250.4287 0002607 101.5588 258.5842 13.25826501224560
ONEWEB-0252             
1 48970U 21060D   26050.06046978  .00000014  00000+0  27074-5 0  9999
2 48970  87.8995 252.2788 0001346  88.2734 271.8551 13.16591918224119
ONEWEB-0253             
1 48971U 21060E   26050.04939898 -.00000009  00000+0 -56359-4 0  9993
2 48971  87.8997 252.2861 0001494  96.8188 263.3113 13.16595426224046
ONEWEB-0254             
1 48972U 21060F   26050.05889586 -.00000052  00000+0 -17057-3 0  9992
2 48972  87.8997 252.2782 0001640 104.2718 255.8596 13.16595381224046
ONEWEB-0255             
1 48973U 21060G   26050.09690624  .00000036  00000+0  59412-4 0  9992
2 48973  87.8996 252.2807 0001590 103.5110 256.6198 13.16596209224122
ONEWEB-0256             
1 48974U 21060H   26050.12301282 -.00000359  00000+0 -97254-3 0  9991
2 48974  87.9000 252.2826 0001530  85.9026 274.2279 13.16593370224092
ONEWEB-0257             
1 48975U 21060J   26050.07947873  .00000037  00000+0  62204-4 0  9997
2 48975  87.8997 252.2753 0001450  95.7987 264.3310 13.16595462224047
ONEWEB-0258             
1 48976U 21060K   26050.08106791  .00000056  00000+0  11385-3 0  9999
2 48976  87.8995 252.2867 0001654  92.2384 267.8936 13.16595309224054
ONEWEB-0259             
1 48977U 21060L   26050.07472787  .00000072  00000+0  15590-3 0  9990
2 48977  87.8996 252.2864 0001586  98.1925 261.9386 13.16596135224088
ONEWEB-0260             
1 48978U 21060M   26050.06601537 -.00000001  00000+0 -36877-4 0  9993
2 48978  87.8995 252.2939 0001288  81.3719 278.7558 13.16592773224064
ONEWEB-0261             
1 48979U 21060N   26050.11193237 -.00000059  00000+0 -18764-3 0  9990
2 48979  87.8989 252.2870 0001355 106.4468 253.6812 13.16595703224125
ONEWEB-0262             
1 48980U 21060P   26050.09214911  .00000135  00000+0  31990-3 0  9991
2 48980  87.8997 252.2712 0001746 101.5581 258.5746 13.16595543224084
