[{"OBJECT_NAME":"ONEWEB-0215","OBJECT_ID":"2021-045AK","EPOCH":"2026-02-19T03:21:03.099744","MEAN_MOTION":13.15550592,"ECCENTRICITY":0.00013416,"INCLINATION":87.8975,"RA_OF_ASC_NODE":282.7421,"ARG_OF_PERICENTER":112.4809,"MEAN_ANOMALY":247.6463,"EPHEMERIS_TYPE":0,"CLASSIFICATION_TYPE":"U","NORAD_CAT_ID":48800,"ELEMENT_SET_NO":999,"REV_AT_EPOCH":22877,"BSTAR":-0.00013100679,"MEAN_MOTION_DOT":-3.6e-7,"MEAN_MOTION_DDOT":0},{"OBJECT_NAME":"ONEWEB-0216","OBJECT_ID":"2021-045AL","EPOCH":"2026-02-19T03:34:43.311360","MEAN_MOTION":13.15549967,"ECCENTRICITY":0.00013826,"INCLINATION":87.896,"RA_OF_ASC_NODE":282.7622,"ARG_OF_PERICENTER":81.2291,"MEAN_ANOMALY":278.8996,"EPHEMERIS_TYPE":0,"CLASSIFICATION_TYPE":"U","NORAD_CAT_ID":48801,"ELEMENT_SET_NO":999,"REV_AT_EPOCH":22878,"BSTAR":6.837993e-5,"MEAN_MOTION_DOT":3.9e-7,"MEAN_MOTION_DDOT":0},{"OBJECT_NAME":"ONEWEB-0239","OBJECT_ID":"2021-045AM","EPOCH":"2026-02-19T01:52:02.064288","MEAN_MOTION":13.15548183,"ECCENTRICITY":0.0001614,"INCLINATION":87.8958,"RA_OF_ASC_NODE":282.7906,"ARG_OF_PERICENTER":116.5798,"MEAN_ANOMALY":243.5498,"EPHEMERIS_TYPE":0,"CLASSIFICATION_TYPE":"U","NORAD_CAT_ID":48802,"ELEMENT_SET_NO":999,"REV_AT_EPOCH":22881,"BSTAR":-0.00043556872,"MEAN_MOTION_DOT":-1.51e-6,"MEAN_MOTION_DDOT":0},{"OBJECT_NAME":"ONEWEB-0249","OBJECT_ID":"2021-060A","EPOCH":"2026-02-19T02:32:03.892704","MEAN_MOTION":13.16592325,"ECCENTRICITY":0.00016511,"INCLINATION":87.8999,"RA_OF_ASC_NODE":252.2769,"ARG_OF_PERICENTER":98.1856,"MEAN_ANOMALY":261.9463,"EPHEMERIS_TYPE":0,"CLASSIFICATION_TYPE":"U","NORAD_CAT_ID":48967,"ELEMENT_SET_NO":999,"REV_AT_EPOCH":22407,"BSTAR":-5.9628081e-5,"MEAN_MOTION_DOT":-1.0e-7,"MEAN_MOTION_DDOT":0},{"OBJECT_NAME":"ONEWEB-0250","OBJECT_ID":"2021-060B","EPOCH":"2026-02-19T01:10:52.913856","MEAN_MOTION":13.25826501,"ECCENTRICITY":0.00026079,"INCLINATION":87.8995,"RA_OF_ASC_NODE":250.4287,"ARG_OF_PERICENTER":101.5588,"MEAN_ANOMALY":258.5842,"EPHEMERIS_TYPE":0,"CLASSIFICATION_TYPE":"U","NORAD_CAT_ID":48968,"ELEMENT_SET_NO":999,"REV_AT_EPOCH":22456,"BSTAR":0.0001159343,"MEAN_MOTION_DOT":6.4e-7,"MEAN_MOTION_DDOT":0},{"OBJECT_NAME":"ONEWEB-0252","OBJECT_ID":"2021-060D","EPOCH":"2026-02-19T01:27:04.588992","MEAN_MOTION":13.16591918,"ECCENTRICITY":0.00013467,"INCLINATION":87.8995,"RA_OF_ASC_NODE":252.2788,"ARG_OF_PERICENTER":88.2734,"MEAN_ANOMALY":271.8551,"EPHEMERIS_TYPE":0,"CLASSIFICATION_TYPE":"U","NORAD_CAT_ID":48970,"ELEMENT_SET_NO":999,"REV_AT_EPOCH":22411,"BSTAR":2.707394e-6,"MEAN_MOTION_DOT":1.4e-7,"MEAN_MOTION_DDOT":0},{"OBJECT_NAME":"ONEWEB-0253","OBJECT_ID":"2021-060E","EPOCH":"2026-02-19T01:11:08.071872","MEAN_MOTION":13.16595426,"ECCENTRICITY":0.0001494,"INCLINATION":87.8997,"RA_OF_ASC_NODE":252.2861,"ARG_OF_PERICENTER":96.8188,"MEAN_ANOMALY":263.3113,"EPHEMERIS_TYPE":0,"CLASSIFICATION_TYPE":"U","NORAD_CAT_ID":48971,"ELEMENT_SET_NO":999,"REV_AT_EPOCH":22404,"BSTAR":-5.6359412e-5,"MEAN_MOTION_DOT":-9.0e-8,"MEAN_MOTION_DDOT":0},{"OBJECT_NAME":"ONEWEB-0254","OBJECT_ID":"2021-060F","EPOCH":"2026-02-19T01:24:48.602304","MEAN_MOTION":13.16595381,"ECCENTRICITY":0.00016402,"INCLINATION":87.8997,"RA_OF_ASC_NODE":252.2782,"ARG_OF_PERICENTER":104.2718,"MEAN_ANOMALY":255.8596,"EPHEMERIS_TYPE":0,"CLASSIFICATION_TYPE":"U","NORAD_CAT_ID":48972,"ELEMENT_SET_NO":999,"REV_AT_EPOCH":22404,"BSTAR":-0.00017056517,"MEAN_MOTION_DOT":-5.2e-7,"MEAN_MOTION_DDOT":0},{"OBJECT_NAME":"ONEWEB-0255","OBJECT_ID":"2021-060G","EPOCH":"2026-02-19T02:19:32.699136","MEAN_MOTION":13.16596209,"ECCENTRICITY":0.000159,"INCLINATION":87.8996,"RA_OF_ASC_NODE":252.2807,"ARG_OF_PERICENTER":103.511,"MEAN_ANOMALY":256.6198,"EPHEMERIS_TYPE":0,"CLASSIFICATION_TYPE":"U","NORAD_CAT_ID":48973,"ELEMENT_SET_NO":999,"REV_AT_EPOCH":22412,"BSTAR":5.9411927e-5,"MEAN_MOTION_DOT":3.6e-7,"MEAN_MOTION_DDOT":0},{"OBJECT_NAME":"ONEWEB-0256","OBJECT_ID":"2021-060H","EPOCH":"2026-02-19T02:57:08.307648","MEAN_MOTION":13.1659337,"ECCENTRICITY":0.00015302,"INCLINATION":87.9,"RA_OF_ASC_NODE":252.2826,"ARG_OF_PERICENTER":85.9026,"MEAN_ANOMALY":274.2279,"EPHEMERIS_TYPE":0,"CLASSIFICATION_TYPE":"U","NORAD_CAT_ID":48974,"ELEMENT_SET_NO":999,"REV_AT_EPOCH":22409,"BSTAR":-0.00097254194,"MEAN_MOTION_DOT":-3.59e-6,"MEAN_MOTION_DDOT":0},{"OBJECT_NAME":"ONEWEB-0257","OBJECT_ID":"2021-060J","EPOCH":"2026-02-19T01:54:26.962272","MEAN_MOTION":13.16595462,"ECCENTRICITY":0.000145,"INCLINATION":87.8997,"RA_OF_ASC_NODE":252.2753,"ARG_OF_PERICENTER":95.7987,"MEAN_ANOMALY":264.331,"EPHEMERIS_TYPE":0,"CLASSIFICATION_TYPE":"U","NORAD_CAT_ID":48975,"ELEMENT_SET_NO":999,"REV_AT_EPOCH":22404,"BSTAR":6.2203628e-5,"MEAN_MOTION_DOT":3.7e-7,"MEAN_MOTION_DDOT":0},{"OBJECT_NAME":"ONEWEB-0258","OBJECT_ID":"2021-060K","EPOCH":"2026-02-19T01:56:44.267424","MEAN_MOTION":13.16595309,"ECCENTRICITY":0.0001654,"INCLINATION":87.8995,"RA_OF_ASC_NODE":252.2867,"ARG_OF_PERICENTER":92.2384,"MEAN_ANOMALY":267.8936,"EPHEMERIS_TYPE":0,"CLASSIFICATION_TYPE":"U","NORAD_CAT_ID":48976,"ELEMENT_SET_NO":999,"REV_AT_EPOCH":22405,"BSTAR":0.0001138508,"MEAN_MOTION_DOT":5.6e-7,"MEAN_MOTION_DDOT":0},{"OBJECT_NAME":"ONEWEB-0259","OBJECT_ID":"2021-060L","EPOCH":"2026-02-19T01:47:36.487968","MEAN_MOTION":13.16596135,"ECCENTRICITY":0.00015867,"INCLINATION":87.8996,"RA_OF_ASC_NODE":252.2864,"ARG_OF_PERICENTER":98.1925,"MEAN_ANOMALY":261.9386,"EPHEMERIS_TYPE":0,"CLASSIFICATION_TYPE":"U","NORAD_CAT_ID":48977,"ELEMENT_SET_NO":999,"REV_AT_EPOCH":22408,"BSTAR":0.00015590464,"MEAN_MOTION_DOT":7.2e-7,"MEAN_MOTION_DDOT":0},{"OBJECT_NAME":"ONEWEB-0260","OBJECT_ID":"2021-060M","EPOCH":"2026-02-19T01:35:03.727968","MEAN_MOTION":13.16592773,"ECCENTRICITY":0.00012886,"INCLINATION":87.8995,"RA_OF_ASC_NODE":252.2939,"ARG_OF_PERICENTER":81.3719,"MEAN_ANOMALY":278.7558,"EPHEMERIS_TYPE":0,"CLASSIFICATION_TYPE":"U","NORAD_CAT_ID":48978,"ELEMENT_SET_NO":999,"REV_AT_EPOCH":22406,"BSTAR":-3.6876994e-5,"MEAN_MOTION_DOT":-1.0e-8,"MEAN_MOTION_DDOT":0},{"OBJECT_NAME":"ONEWEB-0261","OBJECT_ID":"2021-060N","EPOCH":"2026-02-19T02:41:10.956768","MEAN_MOTION":13.16595703,"ECCENTRICITY":0.00013551,"INCLINATION":87.8989,"RA_OF_ASC_NODE":252.287,"ARG_OF_PERICENTER":106.4468,"MEAN_ANOMALY":253.6812,"EPHEMERIS_TYPE":0,"CLASSIFICATION_TYPE":"U","NORAD_CAT_ID":48979,"ELEMENT_SET_NO":999,"REV_AT_EPOCH":22412,"BSTAR":-0.0001876381,"MEAN_MOTION_DOT":-5.9e-7,"MEAN_MOTION_DDOT":0},{"OBJECT_NAME":"ONEWEB-0262","OBJECT_ID":"2021-060P","EPOCH":"2026-02-19T02:12:41.683104","MEAN_MOTION":13.16595543,"ECCENTRICITY":0.00017468,"INCLINATION":87.8997,"RA_OF_ASC_NODE":252.2712,"ARG_OF_PERICENTER":101.5581,"MEAN_ANOMALY":258.5746,"EPHEMERIS_TYPE":0,"CLASSIFICATION_TYPE":"U","NORAD_CAT_ID":48980,"ELEMENT_SET_NO":999,"REV_AT_EPOCH":22408,"BSTAR":0.00031989643,"MEAN_MOTION_DOT":1.35e-6,"MEAN_MOTION_DDOT":0}]
